{
  "type": "FeatureCollection",
  "features": [
    {
      "type": "Feature",
      "properties": {
        "norad_id": 36533,
        "name": "COSMOS 2251 DEB",
        "group": "cosmos-2251-debris",
        "lat": -65.62046859465006,
        "lon": 74.49469799985819,
        "alt_km": 701.6167483420295,
        "timestamp": "2025-12-13T07:35:41.901752+00:00",
        "meta_object_name": "COSMOS 2251 DEB",
        "meta_object_id": "1993-036BCT",
        "meta_epoch": "2025-12-12T08:44:14.485056",
        "meta_mean_motion": 14.49814074,
        "meta_eccentricity": 0.00492413,
        "meta_inclination": 74.0111,
        "meta_ra_of_asc_node": 115.5327,
        "meta_arg_of_pericenter": 264.7641,
        "meta_mean_anomaly": 94.7899,
        "meta_ephemeris_type": 0,
        "meta_classification_type": "U",
        "meta_norad_cat_id": 36533,
        "meta_element_set_no": 999,
        "meta_rev_at_epoch": 84479,
        "meta_bstar": 0.00081187814,
        "meta_mean_motion_dot": 3.153e-05,
        "meta_mean_motion_ddot": 0,
        "tle_line1": "1 36533U 93036BCT 25346.36405654  .00003153  00000+0  81188-3 0  9994",
        "tle_line2": "2 36533  74.0111 115.5327 0049241 264.7641  94.7899 14.49814074844790"
      },
      "geometry": {
        "type": "Point",
        "coordinates": [
          74.49469799985819,
          -65.62046859465006
        ]
      }
    },
    {
      "type": "Feature",
      "properties": {
        "norad_id": 36539,
        "name": "COSMOS 2251 DEB",
        "group": "cosmos-2251-debris",
        "lat": 29.40091270325327,
        "lon": -135.20990775235165,
        "alt_km": 681.1897062584012,
        "timestamp": "2025-12-13T07:35:41.901761+00:00",
        "meta_object_name": "COSMOS 2251 DEB",
        "meta_object_id": "1993-036BCZ",
        "meta_epoch": "2025-12-12T21:02:25.139904",
        "meta_mean_motion": 14.5930524,
        "meta_eccentricity": 0.0027205,
        "meta_inclination": 74.024,
        "meta_ra_of_asc_node": 54.9185,
        "meta_arg_of_pericenter": 200.0292,
        "meta_mean_anomaly": 159.9808,
        "meta_ephemeris_type": 0,
        "meta_classification_type": "U",
        "meta_norad_cat_id": 36539,
        "meta_element_set_no": 999,
        "meta_rev_at_epoch": 83949,
        "meta_bstar": 0.0010825632,
        "meta_mean_motion_dot": 5.117e-05,
        "meta_mean_motion_ddot": 0,
        "tle_line1": "1 36539U 93036BCZ 25346.87667986  .00005117  00000+0  10826-2 0  9996",
        "tle_line2": "2 36539  74.0240  54.9185 0027205 200.0292 159.9808 14.59305240839494"
      },
      "geometry": {
        "type": "Point",
        "coordinates": [
          -135.20990775235165,
          29.40091270325327
        ]
      }
    },
    {
      "type": "Feature",
      "properties": {
        "norad_id": 36540,
        "name": "COSMOS 2251 DEB",
        "group": "cosmos-2251-debris",
        "lat": 64.9557041124568,
        "lon": -38.381906815667556,
        "alt_km": 699.4694785582624,
        "timestamp": "2025-12-13T07:35:41.901770+00:00",
        "meta_object_name": "COSMOS 2251 DEB",
        "meta_object_id": "1993-036BDA",
        "meta_epoch": "2025-12-12T22:51:44.755776",
        "meta_mean_motion": 14.58485322,
        "meta_eccentricity": 0.00149812,
        "meta_inclination": 74.0293,
        "meta_ra_of_asc_node": 180.1108,
        "meta_arg_of_pericenter": 250.2171,
        "meta_mean_anomaly": 109.7379,
        "meta_ephemeris_type": 0,
        "meta_classification_type": "U",
        "meta_norad_cat_id": 36540,
        "meta_element_set_no": 999,
        "meta_rev_at_epoch": 86013,
        "meta_bstar": 0.0015332514,
        "meta_mean_motion_dot": 7.108e-05,
        "meta_mean_motion_ddot": 0,
        "tle_line1": "1 36540U 93036BDA 25346.95260134  .00007108  00000+0  15333-2 0  9991",
        "tle_line2": "2 36540  74.0293 180.1108 0014981 250.2171 109.7379 14.58485322860131"
      },
      "geometry": {
        "type": "Point",
        "coordinates": [
          -38.381906815667556,
          64.9557041124568
        ]
      }
    },
    {
      "type": "Feature",
      "properties": {
        "norad_id": 36550,
        "name": "COSMOS 2251 DEB",
        "group": "cosmos-2251-debris",
        "lat": -60.46287469804713,
        "lon": 42.02374157446777,
        "alt_km": 751.6708390040267,
        "timestamp": "2025-12-13T07:35:41.901779+00:00",
        "meta_object_name": "COSMOS 2251 DEB",
        "meta_object_id": "1993-036BDL",
        "meta_epoch": "2025-12-12T06:53:46.055040",
        "meta_mean_motion": 14.27197589,
        "meta_eccentricity": 0.00783785,
        "meta_inclination": 74.0439,
        "meta_ra_of_asc_node": 193.5589,
        "meta_arg_of_pericenter": 244.3101,
        "meta_mean_anomaly": 114.994,
        "meta_ephemeris_type": 0,
        "meta_classification_type": "U",
        "meta_norad_cat_id": 36550,
        "meta_element_set_no": 999,
        "meta_rev_at_epoch": 84589,
        "meta_bstar": 0.00090622054,
        "meta_mean_motion_dot": 2.261e-05,
        "meta_mean_motion_ddot": 0,
        "tle_line1": "1 36550U 93036BDL 25346.28733860  .00002261  00000+0  90622-3 0  9999",
        "tle_line2": "2 36550  74.0439 193.5589 0078378 244.3101 114.9940 14.27197589845891"
      },
      "geometry": {
        "type": "Point",
        "coordinates": [
          42.02374157446777,
          -60.46287469804713
        ]
      }
    },
    {
      "type": "Feature",
      "properties": {
        "norad_id": 36551,
        "name": "COSMOS 2251 DEB",
        "group": "cosmos-2251-debris",
        "lat": 72.06746379715413,
        "lon": 130.23060071445292,
        "alt_km": 576.7244246730979,
        "timestamp": "2025-12-13T07:35:41.901787+00:00",
        "meta_object_name": "COSMOS 2251 DEB",
        "meta_object_id": "1993-036BDM",
        "meta_epoch": "2025-12-12T08:47:24.108864",
        "meta_mean_motion": 15.02551083,
        "meta_eccentricity": 0.00509575,
        "meta_inclination": 73.8872,
        "meta_ra_of_asc_node": 15.4722,
        "meta_arg_of_pericenter": 324.547,
        "meta_mean_anomaly": 35.2333,
        "meta_ephemeris_type": 0,
        "meta_classification_type": "U",
        "meta_norad_cat_id": 36551,
        "meta_element_set_no": 999,
        "meta_rev_at_epoch": 66926,
        "meta_bstar": 0.0018916563,
        "meta_mean_motion_dot": 0.00025929,
        "meta_mean_motion_ddot": 0,
        "tle_line1": "1 36551U 93036BDM 25346.36625126  .00025929  00000+0  18917-2 0  9996",
        "tle_line2": "2 36551  73.8872  15.4722 0050957 324.5470  35.2333 15.02551083669267"
      },
      "geometry": {
        "type": "Point",
        "coordinates": [
          130.23060071445292,
          72.06746379715413
        ]
      }
    },
    {
      "type": "Feature",
      "properties": {
        "norad_id": 36557,
        "name": "COSMOS 2251 DEB",
        "group": "cosmos-2251-debris",
        "lat": 28.467624278312247,
        "lon": 134.07711292301707,
        "alt_km": 638.924081499038,
        "timestamp": "2025-12-13T07:35:41.901796+00:00",
        "meta_object_name": "COSMOS 2251 DEB",
        "meta_object_id": "1993-036BDT",
        "meta_epoch": "2025-12-11T16:28:44.136480",
        "meta_mean_motion": 14.78160391,
        "meta_eccentricity": 0.00210346,
        "meta_inclination": 73.9786,
        "meta_ra_of_asc_node": 128.3248,
        "meta_arg_of_pericenter": 280.1534,
        "meta_mean_anomaly": 79.7268,
        "meta_ephemeris_type": 0,
        "meta_classification_type": "U",
        "meta_norad_cat_id": 36557,
        "meta_element_set_no": 999,
        "meta_rev_at_epoch": 33881,
        "meta_bstar": 0.0052972788,
        "meta_mean_motion_dot": 0.00038702,
        "meta_mean_motion_ddot": 0,
        "tle_line1": "1 36557U 93036BDT 25345.68662195  .00038702  00000+0  52973-2 0  9996",
        "tle_line2": "2 36557  73.9786 128.3248 0021034 280.1534  79.7268 14.78160391338811"
      },
      "geometry": {
        "type": "Point",
        "coordinates": [
          134.07711292301707,
          28.467624278312247
        ]
      }
    },
    {
      "type": "Feature",
      "properties": {
        "norad_id": 36558,
        "name": "COSMOS 2251 DEB",
        "group": "cosmos-2251-debris",
        "lat": -70.70132358660258,
        "lon": 98.65168820704888,
        "alt_km": 708.0684436826486,
        "timestamp": "2025-12-13T07:35:41.901806+00:00",
        "meta_object_name": "COSMOS 2251 DEB",
        "meta_object_id": "1993-036BDU",
        "meta_epoch": "2025-12-09T18:10:09.606432",
        "meta_mean_motion": 14.55323693,
        "meta_eccentricity": 0.00129627,
        "meta_inclination": 74.0418,
        "meta_ra_of_asc_node": 160.1895,
        "meta_arg_of_pericenter": 248.6111,
        "meta_mean_anomaly": 111.367,
        "meta_ephemeris_type": 0,
        "meta_classification_type": "U",
        "meta_norad_cat_id": 36558,
        "meta_element_set_no": 999,
        "meta_rev_at_epoch": 85225,
        "meta_bstar": 0.0013992246,
        "meta_mean_motion_dot": 6.051e-05,
        "meta_mean_motion_ddot": 0,
        "tle_line1": "1 36558U 93036BDU 25343.75705563  .00006051  00000+0  13992-2 0  9990",
        "tle_line2": "2 36558  74.0418 160.1895 0012962 248.6111 111.3670 14.55323693852258"
      },
      "geometry": {
        "type": "Point",
        "coordinates": [
          98.65168820704888,
          -70.70132358660258
        ]
      }
    }
  ]
}